0 CRYOSAT 2
1 36508U 10013A   18025.86417701  .00000090  00000-0  21556-4 0  9999
2 36508  92.0260 256.1331 0005784 318.0282  42.0481 14.52174984413475
0 CRYOSAT 2
1 36508U 10013A   18026.62215478 +.00000091 +00000-0 +21659-4 0  9996
2 36508 092.0259 256.3167 0005708 314.7176 045.3566 14.52175128413609
0 CRYOSAT 2
1 36508U 10013A   18026.89778307 +.00000088 +00000-0 +20907-4 0  9991
2 36508 092.0259 256.3834 0005678 313.4823 046.5912 14.52175146413643
0 CRYOSAT 2
1 36508U 10013A   18027.17341133  .00000088  00000-0  21011-4 0  9993
2 36508  92.0259 256.4502 0005653 312.2468  47.8260 14.52175207413661
0 CRYOSAT 2
1 36508U 10013A   18027.58685372 +.00000085 +00000-0 +20338-4 0  9992
2 36508 092.0258 256.5503 0005616 310.3926 049.6790 14.52175273413749
0 CRYOSAT 2
1 36508U 10013A   18027.93138904 +.00000081 +00000-0 +19218-4 0  9996
2 36508 092.0258 256.6337 0005583 308.8525 051.2184 14.52175304413791
0 CRYOSAT 2
1 36508U 10013A   18028.20701727  .00000079  00000-0  18694-4 0  9990
2 36508  92.0258 256.7005 0005559 307.5708  52.4994 14.52175354413816
0 CRYOSAT 2
1 36508U 10013A   18028.62045963 +.00000084 +00000-0 +20090-4 0  9998
2 36508 092.0257 256.8006 0005523 305.6386 054.4307 14.52175434413896
0 CRYOSAT 2
1 36508U 10013A   18028.89608788 +.00000082 +00000-0 +19605-4 0  9995
2 36508 092.0257 256.8673 0005498 304.3650 055.7037 14.52175457413931
0 CRYOSAT 2
1 36508U 10013A   18029.51625138  .00000076  00000-0  18059-4 0  9998
2 36508  92.0257 257.0175 0005454 301.4588  58.6086 14.52175549414008
0 CRYOSAT 2
1 36508U 10013A   18029.58515843 +.00000075 +00000-0 +17745-4 0  9996
2 36508 092.0257 257.0342 0005449 301.1325 058.9347 14.52175563414036
0 CRYOSAT 2
1 36508U 10013A   18029.92969371 +.00000066 +00000-0 +15563-4 0  9999
2 36508 092.0257 257.1176 0005422 299.5227 060.5439 14.52175575414083
0 CRYOSAT 2
1 36508U 10013A   18030.54985718  .00000065  00000-0  15388-4 0  9996
2 36508  92.0256 257.2678 0005383 296.5522  63.5133 14.52175669414157
0 CRYOSAT 2
1 36508U 10013A   18030.89439244 +.00000061 +00000-0 +14381-4 0  9990
2 36508 092.0256 257.3512 0005358 294.8725 065.1925 14.52175696414228
0 CRYOSAT 2
1 36508U 10013A   18031.58346293 +.00000052 +00000-0 +12154-4 0  9994
2 36508 092.0255 257.5180 0005321 291.5639 068.5001 14.52175778414322
0 CRYOSAT 2
1 36508U 10013A   18031.85909113  .00000046  00000-0  10734-4 0  9995
2 36508  92.0255 257.5847 0005304 290.2363  69.8274 14.52175785414349
